{
  "type": "FeatureCollection",
  "features": [
    {
      "type": "Feature",
      "properties": {
        "norad_id": 39227,
        "name": "ARIRANG-5 (KOMPSAT-5)",
        "group": "resource",
        "lat": -66.69730655861464,
        "lon": -165.69149770851564,
        "alt_km": 560.9773811644609,
        "timestamp": "2025-12-17T23:38:06.520058+00:00",
        "meta_object_name": "ARIRANG-5 (KOMPSAT-5)",
        "meta_object_id": "2013-042A",
        "meta_epoch": "2025-12-17T14:21:33.895008",
        "meta_mean_motion": 15.0452699,
        "meta_eccentricity": 0.00034342,
        "meta_inclination": 97.6148,
        "meta_ra_of_asc_node": 175.8322,
        "meta_arg_of_pericenter": 42.1686,
        "meta_mean_anomaly": 317.9804,
        "meta_ephemeris_type": 0,
        "meta_classification_type": "U",
        "meta_norad_cat_id": 39227,
        "meta_element_set_no": 999,
        "meta_rev_at_epoch": 67655,
        "meta_bstar": 0.00017218716,
        "meta_mean_motion_dot": 2.352e-05,
        "meta_mean_motion_ddot": 0,
        "tle_line1": "1 39227U 13042A   25351.59830897  .00002352  00000+0  17219-3 0  9992",
        "tle_line2": "2 39227  97.6148 175.8322 0003434  42.1686 317.9804 15.04526990676551"
      },
      "geometry": {
        "type": "Point",
        "coordinates": [
          -165.69149770851564,
          -66.69730655861464
        ]
      }
    },
    {
      "type": "Feature",
      "properties": {
        "norad_id": 39418,
        "name": "SKYSAT-A",
        "group": "resource",
        "lat": 76.73388633587653,
        "lon": 8.52616285783864,
        "alt_km": 534.8858538072209,
        "timestamp": "2025-12-17T23:38:06.520068+00:00",
        "meta_object_name": "SKYSAT-A",
        "meta_object_id": "2013-066C",
        "meta_epoch": "2025-12-17T15:20:32.258400",
        "meta_mean_motion": 15.11638516,
        "meta_eccentricity": 0.00210408,
        "meta_inclination": 97.4106,
        "meta_ra_of_asc_node": 41.6992,
        "meta_arg_of_pericenter": 218.8644,
        "meta_mean_anomaly": 141.1075,
        "meta_ephemeris_type": 0,
        "meta_classification_type": "U",
        "meta_norad_cat_id": 39418,
        "meta_element_set_no": 999,
        "meta_rev_at_epoch": 66104,
        "meta_bstar": 0.00017905929,
        "meta_mean_motion_dot": 2.995e-05,
        "meta_mean_motion_ddot": 0,
        "tle_line1": "1 39418U 13066C   25351.63926225  .00002995  00000+0  17906-3 0  9992",
        "tle_line2": "2 39418  97.4106  41.6992 0021040 218.8644 141.1075 15.11638516661048"
      },
      "geometry": {
        "type": "Point",
        "coordinates": [
          8.52616285783864,
          76.73388633587653
        ]
      }
    },
    {
      "type": "Feature",
      "properties": {
        "norad_id": 39419,
        "name": "DUBAISAT-2",
        "group": "resource",
        "lat": 19.586461314906803,
        "lon": 164.89715177130142,
        "alt_km": 546.8017144018577,
        "timestamp": "2025-12-17T23:38:06.520078+00:00",
        "meta_object_name": "DUBAISAT-2",
        "meta_object_id": "2013-066D",
        "meta_epoch": "2025-12-17T13:22:27.302880",
        "meta_mean_motion": 15.08404295,
        "meta_eccentricity": 0.0010078,
        "meta_inclination": 97.4442,
        "meta_ra_of_asc_node": 341.8162,
        "meta_arg_of_pericenter": 304.0406,
        "meta_mean_anomaly": 55.9865,
        "meta_ephemeris_type": 0,
        "meta_classification_type": "U",
        "meta_norad_cat_id": 39419,
        "meta_element_set_no": 999,
        "meta_rev_at_epoch": 65899,
        "meta_bstar": 0.00022482527,
        "meta_mean_motion_dot": 3.439e-05,
        "meta_mean_motion_ddot": 0,
        "tle_line1": "1 39419U 13066D   25351.55726045  .00003439  00000+0  22483-3 0  9992",
        "tle_line2": "2 39419  97.4442 341.8162 0010078 304.0406  55.9865 15.08404295658999"
      },
      "geometry": {
        "type": "Point",
        "coordinates": [
          164.89715177130142,
          19.586461314906803
        ]
      }
    },
    {
      "type": "Feature",
      "properties": {
        "norad_id": 39574,
        "name": "GPM-CORE",
        "group": "resource",
        "lat": -64.68514804972297,
        "lon": 114.09032266639407,
        "alt_km": 433.12699341540247,
        "timestamp": "2025-12-17T23:38:06.520088+00:00",
        "meta_object_name": "GPM-CORE",
        "meta_object_id": "2014-009C",
        "meta_epoch": "2025-12-17T14:41:00.612960",
        "meta_mean_motion": 15.44538913,
        "meta_eccentricity": 0.00095402,
        "meta_inclination": 64.9724,
        "meta_ra_of_asc_node": 196.3663,
        "meta_arg_of_pericenter": 246.9729,
        "meta_mean_anomaly": 113.0405,
        "meta_ephemeris_type": 0,
        "meta_classification_type": "U",
        "meta_norad_cat_id": 39574,
        "meta_element_set_no": 999,
        "meta_rev_at_epoch": 66976,
        "meta_bstar": 0.00014229037,
        "meta_mean_motion_dot": 6.399e-05,
        "meta_mean_motion_ddot": 0,
        "tle_line1": "1 39574U 14009C   25351.61181265  .00006399  00000+0  14229-3 0  9995",
        "tle_line2": "2 39574  64.9724 196.3663 0009540 246.9729 113.0405 15.44538913669764"
      },
      "geometry": {
        "type": "Point",
        "coordinates": [
          114.09032266639407,
          -64.68514804972297
        ]
      }
    },
    {
      "type": "Feature",
      "properties": {
        "norad_id": 39634,
        "name": "SENTINEL-1A",
        "group": "resource",
        "lat": -58.55373294526478,
        "lon": 10.754307143678941,
        "alt_km": 703.5421496447389,
        "timestamp": "2025-12-17T23:38:06.520098+00:00",
        "meta_object_name": "SENTINEL-1A",
        "meta_object_id": "2014-016A",
        "meta_epoch": "2025-12-17T14:01:59.838240",
        "meta_mean_motion": 14.59201092,
        "meta_eccentricity": 0.00012428,
        "meta_inclination": 98.1802,
        "meta_ra_of_asc_node": 356.7551,
        "meta_arg_of_pericenter": 82.4898,
        "meta_mean_anomaly": 277.6443,
        "meta_ephemeris_type": 0,
        "meta_classification_type": "U",
        "meta_norad_cat_id": 39634,
        "meta_element_set_no": 999,
        "meta_rev_at_epoch": 62353,
        "meta_bstar": 4.237306e-05,
        "meta_mean_motion_dot": 1.54e-06,
        "meta_mean_motion_ddot": 0,
        "tle_line1": "1 39634U 14016A   25351.58472035  .00000154  00000+0  42373-4 0  9999",
        "tle_line2": "2 39634  98.1802 356.7551 0001242  82.4898 277.6443 14.59201092623530"
      },
      "geometry": {
        "type": "Point",
        "coordinates": [
          10.754307143678941,
          -58.55373294526478
        ]
      }
    },
    {
      "type": "Feature",
      "properties": {
        "norad_id": 39731,
        "name": "KAZEOSAT 1",
        "group": "resource",
        "lat": -47.40802783630839,
        "lon": 72.96029893085037,
        "alt_km": 759.143251279761,
        "timestamp": "2025-12-17T23:38:06.520108+00:00",
        "meta_object_name": "KAZEOSAT 1",
        "meta_object_id": "2014-024A",
        "meta_epoch": "2025-12-17T15:31:53.363424",
        "meta_mean_motion": 14.4206551,
        "meta_eccentricity": 0.0001159,
        "meta_inclination": 98.3433,
        "meta_ra_of_asc_node": 63.4445,
        "meta_arg_of_pericenter": 96.8104,
        "meta_mean_anomaly": 263.3218,
        "meta_ephemeris_type": 0,
        "meta_classification_type": "U",
        "meta_norad_cat_id": 39731,
        "meta_element_set_no": 999,
        "meta_rev_at_epoch": 61239,
        "meta_bstar": 5.7622348e-05,
        "meta_mean_motion_dot": 1.46e-06,
        "meta_mean_motion_ddot": 0,
        "tle_line1": "1 39731U 14024A   25351.64714541  .00000146  00000+0  57622-4 0  9998",
        "tle_line2": "2 39731  98.3433  63.4445 0001159  96.8104 263.3218 14.42065510612399"
      },
      "geometry": {
        "type": "Point",
        "coordinates": [
          72.96029893085037,
          -47.40802783630839
        ]
      }
    },
    {
      "type": "Feature",
      "properties": {
        "norad_id": 39766,
        "name": "ALOS-2",
        "group": "resource",
        "lat": -1.3398958447319693,
        "lon": -93.43041023086273,
        "alt_km": 634.1262153323532,
        "timestamp": "2025-12-17T23:38:06.520132+00:00",
        "meta_object_name": "ALOS-2",
        "meta_object_id": "2014-029A",
        "meta_epoch": "2025-12-17T14:42:09.909216",
        "meta_mean_motion": 14.79473097,
        "meta_eccentricity": 0.00013315,
        "meta_inclination": 97.9224,
        "meta_ra_of_asc_node": 86.3894,
        "meta_arg_of_pericenter": 95.5953,
        "meta_mean_anomaly": 264.541,
        "meta_ephemeris_type": 0,
        "meta_classification_type": "U",
        "meta_norad_cat_id": 39766,
        "meta_element_set_no": 999,
        "meta_rev_at_epoch": 62473,
        "meta_bstar": 0.00019199921,
        "meta_mean_motion_dot": 1.383e-05,
        "meta_mean_motion_ddot": 0,
        "tle_line1": "1 39766U 14029A   25351.61261469  .00001383  00000+0  19200-3 0  9997",
        "tle_line2": "2 39766  97.9224  86.3894 0001331  95.5953 264.5410 14.79473097624733"
      },
      "geometry": {
        "type": "Point",
        "coordinates": [
          -93.43041023086273,
          -1.3398958447319693
        ]
      }
    }
  ]
}